[{"OBJECT_NAME":"STARLINK-36142","OBJECT_ID":"2025-288Y","EPOCH":"2026-03-09T22:28:07.109760","MEAN_MOTION":15.27581229,"ECCENTRICITY":0.00013217,"INCLINATION":42.999,"RA_OF_ASC_NODE":22.1857,"ARG_OF_PERICENTER":245.7246,"MEAN_ANOMALY":114.3468,"EPHEMERIS_TYPE":0,"CLASSIFICATION_TYPE":"U","NORAD_CAT_ID":66981,"ELEMENT_SET_NO":999,"REV_AT_EPOCH":1532,"BSTAR":0.0011063281,"MEAN_MOTION_DOT":0.00030308,"MEAN_MOTION_DDOT":0},{"OBJECT_NAME":"CZ-2D R\/B","OBJECT_ID":"2025-227B","EPOCH":"2026-03-09T22:11:26.043072","MEAN_MOTION":15.30393637,"ECCENTRICITY":0.00198129,"INCLINATION":80.1514,"RA_OF_ASC_NODE":267.3771,"ARG_OF_PERICENTER":270.3655,"MEAN_ANOMALY":89.5307,"EPHEMERIS_TYPE":0,"CLASSIFICATION_TYPE":"U","NORAD_CAT_ID":65946,"ELEMENT_SET_NO":999,"REV_AT_EPOCH":2254,"BSTAR":0.00032251975,"MEAN_MOTION_DOT":9.557e-5,"MEAN_MOTION_DDOT":0}]
